NORAD_CAT_ID,OBJECT_NAME,OBJECT_TYPE,EPOCH,MEAN_MOTION,ECCENTRICITY,INCLINATION,RA_OF_ASC_NODE,ARG_OF_PERICENTER,MEAN_ANOMALY,BSTAR,MEAN_MOTION_DOT,MEAN_MOTION_DDOT,TLE_LINE0,TLE_LINE1,TLE_LINE2,SEMIMAJOR_AXIS,PERIOD,APOGEE,PERIGEE,DECAYED
52877.0,STARLINK-4214,PAYLOAD,2024-01-19 22:45:12,15.08847224,0.0001468,53.2153,274.5161,93.1288,266.9872,0.00013696,1.893e-05,0.0,0 STARLINK-4214,1 52877U 22062AZ  24019.94806229  .00001893  00000-0  13696-3 0  9996,2 52877  53.2153 274.5161 0001468  93.1288 266.9872 15.08847224 88351,6917.858,95.437,540.739,538.708,0.0
52877.0,STARLINK-4214,PAYLOAD,2024-01-20 01:55:58,15.08851521,0.0001424,53.2149,273.9208,87.7285,272.387,0.00022067,3.227e-05,0.0,0 STARLINK-4214,1 52877U 22062AZ  24020.08054031  .00003227  00000-0  22067-3 0  9994,2 52877  53.2149 273.9208 0001424  87.7285 272.3870 15.08851521 88869,6917.845,95.437,540.695,538.725,0.0
52877.0,STARLINK-4214,PAYLOAD,2024-01-20 16:14:27,15.0884036,0.0001855,53.2142,271.252,80.3172,279.803,3.0443e-05,1.96e-06,0.0,0 STARLINK-4214,1 52877U 22062AZ  24020.67670752  .00000196  00000-0  30443-4 0  9993,2 52877  53.2142 271.2520 0001855  80.3172 279.8030 15.08840360 88951,6917.879,95.438,541.028,538.461,0.0
52877.0,STARLINK-4214,PAYLOAD,2024-01-20 22:35:59,15.08839425,0.0001884,53.216,270.0574,121.9417,238.1758,-4.2336e-05,-9.62e-06,0.0,0 STARLINK-4214,1 52877U 22062AZ  24020.94166385 -.00000962  00000-0 -42336-4 0  9992,2 52877  53.2160 270.0574 0001884 121.9417 238.1758 15.08839425 88509,6917.882,95.438,541.05,538.444,0.0
52877.0,STARLINK-4214,PAYLOAD,2024-01-21 01:46:46,15.0884462,0.0001521,53.2156,269.464,97.5912,262.5253,8.578e-05,1.078e-05,0.0,0 STARLINK-4214,1 52877U 22062AZ  24021.07414582  .00001078  00000-0  85780-4 0  9999,2 52877  53.2156 269.4640 0001521  97.5912 262.5253 15.08844620 88522,6917.866,95.437,540.783,538.679,0.0
52877.0,STARLINK-4214,PAYLOAD,2024-01-21 22:26:46,15.08830639,0.0001526,53.216,265.5986,93.879,266.2377,-0.00022476,-3.862e-05,0.0,0 STARLINK-4214,1 52877U 22062AZ  24021.93526581 -.00003862  00000-0 -22476-3 0  9994,2 52877  53.2160 265.5986 0001526  93.8790 266.2377 15.08830639 88652,6917.909,95.438,540.83,538.718,0.0
52877.0,STARLINK-4214,PAYLOAD,2024-01-22 19:06:47,15.088371,0.0001964,53.2163,261.7311,116.7148,243.4046,-6.651e-05,-1.346e-05,0.0,0 STARLINK-4214,1 52877U 22062AZ  24022.79638444 -.00001346  00000-0 -66510-4 0  9994,2 52877  53.2163 261.7311 0001964 116.7148 243.4046 15.08837100 89272,6917.889,95.438,541.113,538.396,0.0
52877.0,STARLINK-4214,PAYLOAD,2024-01-22 22:17:34,15.0884208,0.0001414,53.2159,261.1369,90.2711,269.8443,8.4456e-05,1.057e-05,0.0,0 STARLINK-4214,1 52877U 22062AZ  24022.92886576  .00001057  00000-0  84456-4 0  9996,2 52877  53.2159 261.1369 0001414  90.2711 269.8443 15.08842080 88800,6917.874,95.437,540.717,538.761,0.0
52877.0,STARLINK-4214,PAYLOAD,2024-01-23 22:08:20,15.08846003,0.000136,53.2152,256.6777,81.2807,278.8339,-1.6262e-05,-5.47e-06,0.0,0 STARLINK-4214,1 52877U 22062AZ  24023.92246387 -.00000547  00000-0 -16262-4 0  9992,2 52877  53.2152 256.6777 0001360  81.2807 278.8339 15.08846003 88950,6917.862,95.437,540.668,538.786,0.0
52877.0,STARLINK-4214,PAYLOAD,2024-01-24 21:59:07,15.0885401,0.0001011,53.215,252.2155,89.1226,270.9882,0.0002739,4.076e-05,0.0,0 STARLINK-4214,1 52877U 22062AZ  24024.91605733  .00004076  00000-0  27390-3 0  9998,2 52877  53.2150 252.2155 0001011  89.1226 270.9882 15.08854010 89106,6917.838,95.437,540.402,539.003,0.0
52877.0,STARLINK-4214,PAYLOAD,2024-01-25 10:42:13,15.08834567,0.000147,53.2157,249.8392,123.2893,236.824,-0.00016352,-2.889e-05,0.0,0 STARLINK-4214,1 52877U 22062AZ  24025.44598467 -.00002889  00000-0 -16352-3 0  9990,2 52877  53.2157 249.8392 0001470 123.2893 236.8240 15.08834567 89673,6917.897,95.438,540.779,538.745,0.0
52877.0,STARLINK-4214,PAYLOAD,2024-01-25 20:14:32,15.08824308,0.0001611,53.2158,248.0579,114.6202,245.4958,-0.00025993,-4.421e-05,0.0,0 STARLINK-4214,1 52877U 22062AZ  24025.84342981 -.00004421  00000-0 -25993-3 0  9997,2 52877  53.2158 248.0579 0001611 114.6202 245.4958 15.08824308 89244,6917.928,95.439,540.908,538.679,0.0
52877.0,STARLINK-4214,PAYLOAD,2024-01-26 18:29:56,15.08833959,0.000113,53.2138,243.889,93.6752,266.4369,0.0001271,1.735e-05,0.0,0 STARLINK-4214,1 52877U 22062AZ  24026.77079550  .00001735  00000-0  12710-3 0  9995,2 52877  53.2138 243.8890 0001130  93.6752 266.4369 15.08833959 89873,6917.899,95.438,540.546,538.982,0.0
52877.0,STARLINK-4214,PAYLOAD,2024-01-26 21:40:42,15.08837726,0.0001165,53.2143,243.2965,90.1229,269.9897,0.00017257,2.46e-05,0.0,0 STARLINK-4214,1 52877U 22062AZ  24026.90327492  .00002460  00000-0  17257-3 0  9998,2 52877  53.2143 243.2965 0001165  90.1229 269.9897 15.08837726 89404,6917.887,95.438,540.558,538.946,0.0
52877.0,STARLINK-4214,PAYLOAD,2024-01-27 19:56:07,15.08843854,0.0001229,53.2143,239.1362,85.7076,274.4056,0.00038397,5.829e-05,0.0,0 STARLINK-4214,1 52877U 22062AZ  24027.83063905  .00005829  00000-0  38397-3 0  9997,2 52877  53.2143 239.1362 0001229  85.7076 274.4056 15.08843854 90038,6917.869,95.437,540.584,538.883,0.0
52877.0,STARLINK-4214,PAYLOAD,2024-01-27 21:31:30,15.08844719,0.0001232,53.2139,238.8383,70.6913,289.4212,0.00037334,5.66e-05,0.0,0 STARLINK-4214,1 52877U 22062AZ  24027.89687878  .00005660  00000-0  37334-3 0  9997,2 52877  53.2139 238.8383 0001232  70.6913 289.4212 15.08844719 89555,6917.866,95.437,540.583,538.879,0.0
52877.0,STARLINK-4214,PAYLOAD,2024-01-27 23:06:53,15.08832125,0.0001343,53.2143,238.5428,67.8666,292.2468,4.5056e-05,4.29e-06,0.0,0 STARLINK-4214,1 52877U 22062AZ  24027.96312330  .00000429  00000-0  45056-4 0  9992,2 52877  53.2143 238.5428 0001343  67.8666 292.2468 15.08832125 90053,6917.904,95.438,540.699,538.84,0.0
52877.0,STARLINK-4214,PAYLOAD,2024-01-28 13:25:22,15.08822852,0.0001416,53.2142,235.8631,67.8181,292.2961,-0.0001168,-2.145e-05,0.0,0 STARLINK-4214,1 52877U 22062AZ  24028.55929255 -.00002145  00000-0 -11680-3 0  9992,2 52877  53.2142 235.8631 0001416  67.8181 292.2961 15.08822852 89659,6917.933,95.439,540.777,538.818,0.0
52877.0,STARLINK-4214,PAYLOAD,2024-01-28 19:46:55,15.0882236,0.0001396,53.214,234.6737,66.238,293.8759,-5.7557e-05,-1.203e-05,0.0,0 STARLINK-4214,1 52877U 22062AZ  24028.82425615 -.00001203  00000-0 -57557-4 0  9991,2 52877  53.2140 234.6737 0001396  66.2380 293.8759 15.08822360 90188,6917.934,95.439,540.765,538.834,0.0
52877.0,STARLINK-4214,PAYLOAD,2024-01-28 21:22:18,15.0882287,0.0001491,53.2146,234.3768,65.8031,294.3117,-1.9446e-05,-5.97e-06,0.0,0 STARLINK-4214,1 52877U 22062AZ  24028.89049722 -.00000597  00000-0 -19446-4 0  9999,2 52877  53.2146 234.3768 0001491  65.8031 294.3117 15.08822870 89705,6917.933,95.439,540.829,538.766,0.0
52877.0,STARLINK-4214,PAYLOAD,2024-01-28 22:57:42,15.08827913,0.0001402,53.2153,234.0784,73.6522,286.4624,6.8031e-05,7.95e-06,0.0,0 STARLINK-4214,1 52877U 22062AZ  24028.95673672  .00000795  00000-0  68031-4 0  9995,2 52877  53.2153 234.0784 0001402  73.6522 286.4624 15.08827913 90207,6917.917,95.438,540.752,538.812,0.0
52877.0,STARLINK-4214,PAYLOAD,2024-01-29 22:48:28,15.08852024,0.0001288,53.2154,229.6176,76.0581,284.0554,0.00073194,0.00011384,0.0,0 STARLINK-4214,1 52877U 22062AZ  24029.95033520  .00011384  00000-0  73194-3 0  9999,2 52877  53.2154 229.6176 0001288  76.0581 284.0554 15.08852024 90350,6917.844,95.437,540.6,538.818,0.0
52877.0,STARLINK-4214,PAYLOAD,2024-01-30 13:06:56,15.08864614,0.0001386,53.2158,226.9412,66.4108,293.7029,0.00067198,0.0001043,0.0,0 STARLINK-4214,1 52877U 22062AZ  24030.54648841  .00010430  00000-0  67198-3 0  9992,2 52877  53.2158 226.9412 0001386  66.4108 293.7029 15.08864614 89950,6917.805,95.436,540.629,538.711,0.0
52877.0,STARLINK-4214,PAYLOAD,2024-01-30 19:28:28,15.08871503,0.0001386,53.2158,225.7514,67.1451,292.9687,0.00072354,0.00011256,0.0,0 STARLINK-4214,1 52877U 22062AZ  24030.81144305  .00011256  00000-0  72354-3 0  9995,2 52877  53.2158 225.7514 0001386  67.1451 292.9687 15.08871503 89999,6917.784,95.436,540.608,538.69,0.0
52877.0,STARLINK-4214,PAYLOAD,2024-01-31 22:30:01,15.088589,0.0001482,53.2166,220.6929,91.7994,268.3168,0.00056791,8.766e-05,0.0,0 STARLINK-4214,1 52877U 22062AZ  24031.93751644  .00008766  00000-0  56791-3 0  9998,2 52877  53.2166 220.6929 0001482  91.7994 268.3168 15.08858900 90162,6917.823,95.436,540.713,538.662,0.0
52877.0,STARLINK-4214,PAYLOAD,2024-02-01 12:48:29,15.08852294,0.0002353,53.2162,218.0124,113.7228,246.4011,0.00032016,4.813e-05,0.0,0 STARLINK-4214,1 52877U 22062AZ  24032.53367481  .00004813  00000-0  32016-3 0  9990,2 52877  53.2162 218.0124 0002353 113.7228 246.4011 15.08852294 90253,6917.843,95.437,541.336,538.08,0.0
52877.0,STARLINK-4214,PAYLOAD,2024-02-01 22:20:48,15.08843473,0.0001549,53.216,216.2339,92.3762,267.7408,7.3334e-05,8.79e-06,0.0,0 STARLINK-4214,1 52877U 22062AZ  24032.93111571  .00000879  00000-0  73334-4 0  9998,2 52877  53.2160 216.2339 0001549  92.3762 267.7408 15.08843473 90312,6917.87,95.437,540.806,538.663,0.0
52877.0,STARLINK-4214,PAYLOAD,2024-02-02 12:39:16,15.08841619,0.0001715,53.2163,213.5593,96.2892,263.8296,4.3019e-05,3.97e-06,0.0,0 STARLINK-4214,1 52877U 22062AZ  24033.52727600  .00000397  00000-0  43019-4 0  9992,2 52877  53.2163 213.5593 0001715  96.2892 263.8296 15.08841619 90401,6917.875,95.437,540.927,538.554,0.0
52877.0,STARLINK-4214,PAYLOAD,2024-02-02 17:25:26,15.08841136,0.0001427,53.2172,212.6639,100.7273,259.388,0.000104,1.368e-05,0.0,0 STARLINK-4214,1 52877U 22062AZ  24033.72599610  .00001368  00000-0  10400-3 0  9998,2 52877  53.2172 212.6639 0001427 100.7273 259.3880 15.08841136 90432,6917.877,95.437,540.729,538.755,0.0
52877.0,STARLINK-4214,PAYLOAD,2024-02-03 12:30:04,15.08836572,0.0001439,53.2172,209.0979,93.2445,266.8712,2.0223e-05,3.4e-07,0.0,0 STARLINK-4214,1 52877U 22062AZ  24034.52088034  .00000034  00000-0  20223-4 0  9994,2 52877  53.2172 209.0979 0001439  93.2445 266.8712 15.08836572 90557,6917.891,95.438,540.751,538.76,0.0
